[{"OBJECT_NAME":"TIANHUI 5A","OBJECT_ID":"2023-168A","EPOCH":"2026-03-09T14:12:49.556736","MEAN_MOTION":14.8757926,"ECCENTRICITY":0.0001554,"INCLINATION":97.8216,"RA_OF_ASC_NODE":77.385,"ARG_OF_PERICENTER":89.7041,"MEAN_ANOMALY":270.4353,"EPHEMERIS_TYPE":0,"CLASSIFICATION_TYPE":"U","NORAD_CAT_ID":58199,"ELEMENT_SET_NO":999,"REV_AT_EPOCH":12779,"BSTAR":7.8424e-5,"MEAN_MOTION_DOT":6.58e-6,"MEAN_MOTION_DDOT":0},{"OBJECT_NAME":"DELTA 1 DEB","OBJECT_ID":"1975-004AN","EPOCH":"2026-03-09T23:12:54.859104","MEAN_MOTION":14.86279271,"ECCENTRICITY":0.00227404,"INCLINATION":98.3675,"RA_OF_ASC_NODE":250.34,"ARG_OF_PERICENTER":236.8085,"MEAN_ANOMALY":123.0948,"EPHEMERIS_TYPE":0,"CLASSIFICATION_TYPE":"U","NORAD_CAT_ID":8956,"ELEMENT_SET_NO":999,"REV_AT_EPOCH":64723,"BSTAR":0.00043206902,"MEAN_MOTION_DOT":3.758e-5,"MEAN_MOTION_DDOT":0}]
